{
  "type": "FeatureCollection",
  "features": [
    {
      "type": "Feature",
      "properties": {
        "norad_id": 29994,
        "name": "FENGYUN 1C DEB",
        "group": "fengyun-1c-debris",
        "lat": 41.54514749081836,
        "lon": 21.22322343672571,
        "alt_km": 955.2614289107196,
        "timestamp": "2025-12-23T05:02:12.303640+00:00",
        "meta_object_name": "FENGYUN 1C DEB",
        "meta_object_id": "1999-025LU",
        "meta_epoch": "2025-12-22T22:33:28.155744",
        "meta_mean_motion": 14.02645362,
        "meta_eccentricity": 0.01299376,
        "meta_inclination": 98.8269,
        "meta_ra_of_asc_node": 28.8759,
        "meta_arg_of_pericenter": 185.0948,
        "meta_mean_anomaly": 295.6713,
        "meta_ephemeris_type": 0,
        "meta_classification_type": "U",
        "meta_norad_cat_id": 29994,
        "meta_element_set_no": 999,
        "meta_rev_at_epoch": 96869,
        "meta_bstar": -2.1710424e-05,
        "meta_mean_motion_dot": -7.9e-07,
        "meta_mean_motion_ddot": 0,
        "tle_line1": "1 29994U 99025LU  25356.93990921 -.00000079  00000+0 -21710-4 0  9993",
        "tle_line2": "2 29994  98.8269  28.8759 0129937 185.0948 295.6713 14.02645362968696"
      },
      "geometry": {
        "type": "Point",
        "coordinates": [
          21.22322343672571,
          41.54514749081836
        ]
      }
    },
    {
      "type": "Feature",
      "properties": {
        "norad_id": 29996,
        "name": "FENGYUN 1C DEB",
        "group": "fengyun-1c-debris",
        "lat": 56.75233263986711,
        "lon": -130.58861607924595,
        "alt_km": 812.0427198917578,
        "timestamp": "2025-12-23T05:02:12.303650+00:00",
        "meta_object_name": "FENGYUN 1C DEB",
        "meta_object_id": "1999-025LW",
        "meta_epoch": "2025-12-21T13:59:53.912832",
        "meta_mean_motion": 14.09471293,
        "meta_eccentricity": 0.0130877,
        "meta_inclination": 99.3028,
        "meta_ra_of_asc_node": 33.2524,
        "meta_arg_of_pericenter": 63.2592,
        "meta_mean_anomaly": 88.3755,
        "meta_ephemeris_type": 0,
        "meta_classification_type": "U",
        "meta_norad_cat_id": 29996,
        "meta_element_set_no": 999,
        "meta_rev_at_epoch": 96261,
        "meta_bstar": 0.0014675,
        "meta_mean_motion_dot": 2.73e-05,
        "meta_mean_motion_ddot": 0,
        "tle_line1": "1 29996U 99025LW  25355.58326288  .00002730  00000+0  14675-2 0  9998",
        "tle_line2": "2 29996  99.3028  33.2524 0130877  63.2592  88.3755 14.09471293962610"
      },
      "geometry": {
        "type": "Point",
        "coordinates": [
          -130.58861607924595,
          56.75233263986711
        ]
      }
    },
    {
      "type": "Feature",
      "properties": {
        "norad_id": 29997,
        "name": "FENGYUN 1C DEB",
        "group": "fengyun-1c-debris",
        "lat": 8.97137103271576,
        "lon": -171.2168754097579,
        "alt_km": 927.4108465548134,
        "timestamp": "2025-12-23T05:02:12.303660+00:00",
        "meta_object_name": "FENGYUN 1C DEB",
        "meta_object_id": "1999-025LX",
        "meta_epoch": "2025-12-22T23:21:21.665088",
        "meta_mean_motion": 14.00902676,
        "meta_eccentricity": 0.00801255,
        "meta_inclination": 98.8825,
        "meta_ra_of_asc_node": 7.1383,
        "meta_arg_of_pericenter": 298.88,
        "meta_mean_anomaly": 119.5916,
        "meta_ephemeris_type": 0,
        "meta_classification_type": "U",
        "meta_norad_cat_id": 29997,
        "meta_element_set_no": 999,
        "meta_rev_at_epoch": 96533,
        "meta_bstar": 0.00076773812,
        "meta_mean_motion_dot": 1.137e-05,
        "meta_mean_motion_ddot": 0,
        "tle_line1": "1 29997U 99025LX  25356.97316742  .00001137  00000+0  76774-3 0  9996",
        "tle_line2": "2 29997  98.8825   7.1383 0080125 298.8800 119.5916 14.00902676965334"
      },
      "geometry": {
        "type": "Point",
        "coordinates": [
          -171.2168754097579,
          8.97137103271576
        ]
      }
    },
    {
      "type": "Feature",
      "properties": {
        "norad_id": 29998,
        "name": "FENGYUN 1C DEB",
        "group": "fengyun-1c-debris",
        "lat": 23.88993278507875,
        "lon": 54.13157736697086,
        "alt_km": 797.629481767749,
        "timestamp": "2025-12-23T05:02:12.303670+00:00",
        "meta_object_name": "FENGYUN 1C DEB",
        "meta_object_id": "1999-025LY",
        "meta_epoch": "2025-12-22T22:11:59.939520",
        "meta_mean_motion": 14.28587427,
        "meta_eccentricity": 0.00052457,
        "meta_inclination": 99.3054,
        "meta_ra_of_asc_node": 57.9926,
        "meta_arg_of_pericenter": 266.5053,
        "meta_mean_anomaly": 93.5526,
        "meta_ephemeris_type": 0,
        "meta_classification_type": "U",
        "meta_norad_cat_id": 29998,
        "meta_element_set_no": 999,
        "meta_rev_at_epoch": 98020,
        "meta_bstar": 0.00082513299,
        "meta_mean_motion_dot": 2.021e-05,
        "meta_mean_motion_ddot": 0,
        "tle_line1": "1 29998U 99025LY  25356.92499930  .00002021  00000+0  82513-3 0  9994",
        "tle_line2": "2 29998  99.3054  57.9926 0005245 266.5053  93.5526 14.28587427980207"
      },
      "geometry": {
        "type": "Point",
        "coordinates": [
          54.13157736697086,
          23.88993278507875
        ]
      }
    },
    {
      "type": "Feature",
      "properties": {
        "norad_id": 29999,
        "name": "FENGYUN 1C DEB",
        "group": "fengyun-1c-debris",
        "lat": -5.205235173888393,
        "lon": 160.3725596136803,
        "alt_km": 822.8699756717006,
        "timestamp": "2025-12-23T05:02:12.303680+00:00",
        "meta_object_name": "FENGYUN 1C DEB",
        "meta_object_id": "1999-025LZ",
        "meta_epoch": "2025-12-22T17:08:44.280960",
        "meta_mean_motion": 14.20148983,
        "meta_eccentricity": 0.01897748,
        "meta_inclination": 98.5772,
        "meta_ra_of_asc_node": 340.6797,
        "meta_arg_of_pericenter": 97.8191,
        "meta_mean_anomaly": 73.5132,
        "meta_ephemeris_type": 0,
        "meta_classification_type": "U",
        "meta_norad_cat_id": 29999,
        "meta_element_set_no": 999,
        "meta_rev_at_epoch": 97865,
        "meta_bstar": 0.00027024162,
        "meta_mean_motion_dot": 6.48e-06,
        "meta_mean_motion_ddot": 0,
        "tle_line1": "1 29999U 99025LZ  25356.71440140  .00000648  00000+0  27024-3 0  9990",
        "tle_line2": "2 29999  98.5772 340.6797 0189774  97.8191  73.5132 14.20148983978651"
      },
      "geometry": {
        "type": "Point",
        "coordinates": [
          160.3725596136803,
          -5.205235173888393
        ]
      }
    },
    {
      "type": "Feature",
      "properties": {
        "norad_id": 30001,
        "name": "FENGYUN 1C DEB",
        "group": "fengyun-1c-debris",
        "lat": 69.65474032718883,
        "lon": -82.10958060941158,
        "alt_km": 736.1866279293326,
        "timestamp": "2025-12-23T05:02:12.303690+00:00",
        "meta_object_name": "FENGYUN 1C DEB",
        "meta_object_id": "1999-025MA",
        "meta_epoch": "2025-12-22T17:26:22.297344",
        "meta_mean_motion": 14.38723217,
        "meta_eccentricity": 0.00364381,
        "meta_inclination": 98.959,
        "meta_ra_of_asc_node": 72.2084,
        "meta_arg_of_pericenter": 68.857,
        "meta_mean_anomaly": 57.8145,
        "meta_ephemeris_type": 0,
        "meta_classification_type": "U",
        "meta_norad_cat_id": 30001,
        "meta_element_set_no": 999,
        "meta_rev_at_epoch": 97575,
        "meta_bstar": 0.0025375783,
        "meta_mean_motion_dot": 7.809e-05,
        "meta_mean_motion_ddot": 0,
        "tle_line1": "1 30001U 99025MA  25356.72664696  .00007809  00000+0  25376-2 0  9994",
        "tle_line2": "2 30001  98.9590  72.2084 0036438  68.8570  57.8145 14.38723217975758"
      },
      "geometry": {
        "type": "Point",
        "coordinates": [
          -82.10958060941158,
          69.65474032718883
        ]
      }
    },
    {
      "type": "Feature",
      "properties": {
        "norad_id": 30003,
        "name": "FENGYUN 1C DEB",
        "group": "fengyun-1c-debris",
        "lat": 75.8351221134206,
        "lon": -69.7540095995821,
        "alt_km": 834.038721955334,
        "timestamp": "2025-12-23T05:02:12.303700+00:00",
        "meta_object_name": "FENGYUN 1C DEB",
        "meta_object_id": "1999-025MC",
        "meta_epoch": "2025-12-22T20:19:57.106272",
        "meta_mean_motion": 13.85632839,
        "meta_eccentricity": 0.01436253,
        "meta_inclination": 99.5782,
        "meta_ra_of_asc_node": 331.8664,
        "meta_arg_of_pericenter": 93.1632,
        "meta_mean_anomaly": 338.5656,
        "meta_ephemeris_type": 0,
        "meta_classification_type": "U",
        "meta_norad_cat_id": 30003,
        "meta_element_set_no": 999,
        "meta_rev_at_epoch": 95628,
        "meta_bstar": 0.0003357111,
        "meta_mean_motion_dot": 3.7e-06,
        "meta_mean_motion_ddot": 0,
        "tle_line1": "1 30003U 99025MC  25356.84718873  .00000370  00000+0  33571-3 0  9999",
        "tle_line2": "2 30003  99.5782 331.8664 0143625  93.1632 338.5656 13.85632839956288"
      },
      "geometry": {
        "type": "Point",
        "coordinates": [
          -69.7540095995821,
          75.8351221134206
        ]
      }
    }
  ]
}